[
    {
        "Altitude(m)": 567586.0102658843,
        "Argument of Periapsis(deg)": -0.007534386927657468,
        "Eccentricity": 0.0,
        "Inclination(deg)": 97.0,
        "Latitude(deg)": -6.857788937251551,
        "Longitude(deg)": -39.91964994056642,
        "Mean Anomaly(deg)": -6.736652243604205,
        "RAAN(deg)": 60.00198235120617,
        "Satellite Name": "Starlink Shell 3 1755",
        "Satellite Number": 1755,
        "Semi-Major Axis(m)": 6938478.169268562,
        "Time(s)": 190
    },
    {
        "Altitude(m)": 567460.8742383078,
        "Argument of Periapsis(deg)": -0.007930933608060494,
        "Eccentricity": 0.0,
        "Inclination(deg)": 97.0,
        "Latitude(deg)": -6.233712199670379,
        "Longitude(deg)": -40.038547285240654,
        "Mean Anomaly(deg)": -6.111176045899095,
        "RAAN(deg)": 60.00208668548019,
        "Satellite Name": "Starlink Shell 3 1755",
        "Satellite Number": 1755,
        "Semi-Major Axis(m)": 6938478.169268562,
        "Time(s)": 200
    },
    {
        "Altitude(m)": 567339.8319063951,
        "Argument of Periapsis(deg)": -0.008327480288463517,
        "Eccentricity": 0.0,
        "Inclination(deg)": 97.0,
        "Latitude(deg)": -5.609590970689754,
        "Longitude(deg)": -40.15726500752016,
        "Mean Anomaly(deg)": -5.485699848194081,
        "RAAN(deg)": 60.00219101975417,
        "Satellite Name": "Starlink Shell 3 1755",
        "Satellite Number": 1755,
        "Semi-Major Axis(m)": 6938478.169268562,
        "Time(s)": 210
    },
    {
        "Altitude(m)": 567222.9127160183,
        "Argument of Periapsis(deg)": -0.008724026968866542,
        "Eccentricity": 0.0,
        "Inclination(deg)": 97.0,
        "Latitude(deg)": -4.985428229736155,
        "Longitude(deg)": -40.27582189563415,
        "Mean Anomaly(deg)": -4.860223650489022,
        "RAAN(deg)": 60.00229535402819,
        "Satellite Name": "Starlink Shell 3 1755",
        "Satellite Number": 1755,
        "Semi-Major Axis(m)": 6938478.169268562,
        "Time(s)": 220
    },
    {
        "Altitude(m)": 567110.144091283,
        "Argument of Periapsis(deg)": -0.009120573649269567,
        "Eccentricity": 0.0,
        "Inclination(deg)": 97.0,
        "Latitude(deg)": -4.361226957548565,
        "Longitude(deg)": -40.39423658669263,
        "Mean Anomaly(deg)": -4.23474745278397,
        "RAAN(deg)": 60.002399688302205,
        "Satellite Name": "Starlink Shell 3 1755",
        "Satellite Number": 1755,
        "Semi-Major Axis(m)": 6938478.169268562,
        "Time(s)": 230
    },
    {
        "Altitude(m)": 567001.5514239048,
        "Argument of Periapsis(deg)": -0.009517120329672592,
        "Eccentricity": 0.0,
        "Inclination(deg)": 97.0,
        "Latitude(deg)": -3.736990136344207,
        "Longitude(deg)": -40.51252708020283,
        "Mean Anomaly(deg)": -3.6092712550789625,
        "RAAN(deg)": 60.00250402257622,
        "Satellite Name": "Starlink Shell 3 1755",
        "Satellite Number": 1755,
        "Semi-Major Axis(m)": 6938478.169268562,
        "Time(s)": 240
    },
    {
        "Altitude(m)": 566897.1580636884,
        "Argument of Periapsis(deg)": -0.009913667010075618,
        "Eccentricity": 0.0,
        "Inclination(deg)": 97.0,
        "Latitude(deg)": -3.1127207499647245,
        "Longitude(deg)": -40.63071176419429,
        "Mean Anomaly(deg)": -2.9837950573739103,
        "RAAN(deg)": 60.002608356850224,
        "Satellite Name": "Starlink Shell 3 1755",
        "Satellite Number": 1755,
        "Semi-Major Axis(m)": 6938478.169268562,
        "Time(s)": 250
    },
    {
        "Altitude(m)": 566796.9853100161,
        "Argument of Periapsis(deg)": -0.010310213690478642,
        "Eccentricity": 0.0,
        "Inclination(deg)": 97.0,
        "Latitude(deg)": -2.4884217840021914,
        "Longitude(deg)": -40.748808928241594,
        "Mean Anomaly(deg)": -2.3583188596688514,
        "RAAN(deg)": 60.00271269112424,
        "Satellite Name": "Starlink Shell 3 1755",
        "Satellite Number": 1755,
        "Semi-Major Axis(m)": 6938478.169268562,
        "Time(s)": 260
    },
    {
        "Altitude(m)": 566701.0524043551,
        "Argument of Periapsis(deg)": -0.010706760370881667,
        "Eccentricity": 0.0,
        "Inclination(deg)": 97.0,
        "Latitude(deg)": -1.8640962259086797,
        "Longitude(deg)": -40.866836276292766,
        "Mean Anomaly(deg)": -1.7328426619637802,
        "RAAN(deg)": 60.00281702539824,
        "Satellite Name": "Starlink Shell 3 1755",
        "Satellite Number": 1755,
        "Semi-Major Axis(m)": 6938478.169268562,
        "Time(s)": 270
    },
    {
        "Altitude(m)": 566609.3765238564,
        "Argument of Periapsis(deg)": -0.011103307051284692,
        "Eccentricity": 0.0,
        "Inclination(deg)": 97.0,
        "Latitude(deg)": -1.2397470650945872,
        "Longitude(deg)": -40.9848119522112,
        "Mean Anomaly(deg)": -1.1073664642587342,
        "RAAN(deg)": 60.00292135967225,
        "Satellite Name": "Starlink Shell 3 1755",
        "Satellite Number": 1755,
        "Semi-Major Axis(m)": 6938478.169268562,
        "Time(s)": 280
    },
    {
        "Altitude(m)": 566521.972775979,
        "Argument of Periapsis(deg)": -0.011499853731687715,
        "Eccentricity": 0.0,
        "Inclination(deg)": 97.0,
        "Latitude(deg)": -0.6153772930142789,
        "Longitude(deg)": -41.10275405231828,
        "Mean Anomaly(deg)": -0.4818902665537265,
        "RAAN(deg)": 60.003025693946256,
        "Satellite Name": "Starlink Shell 3 1755",
        "Satellite Number": 1755,
        "Semi-Major Axis(m)": 6938478.169268562,
        "Time(s)": 290
    },
    {
        "Altitude(m)": 566438.8541941447,
        "Argument of Periapsis(deg)": -0.011896400412090741,
        "Eccentricity": 0.0,
        "Inclination(deg)": 97.0,
        "Latitude(deg)": 0.00901009675653726,
        "Longitude(deg)": -41.22068013784284,
        "Mean Anomaly(deg)": 0.1435859311513321,
        "RAAN(deg)": 60.00313002822027,
        "Satellite Name": "Starlink Shell 3 1755",
        "Satellite Number": 1755,
        "Semi-Major Axis(m)": 6938478.169268562,
        "Time(s)": 300
    },
    {
        "Altitude(m)": 566360.0317345023,
        "Argument of Periapsis(deg)": -0.012292947092493765,
        "Eccentricity": 0.0,
        "Inclination(deg)": 97.0,
        "Latitude(deg)": 0.6334121084466378,
        "Longitude(deg)": -41.33860826018409,
        "Mean Anomaly(deg)": 0.7690621288563907,
        "RAAN(deg)": 60.003234362494275,
        "Satellite Name": "Starlink Shell 3 1755",
        "Satellite Number": 1755,
        "Semi-Major Axis(m)": 6938478.169268562,
        "Time(s)": 310
    },
    {
        "Altitude(m)": 566285.5142736891,
        "Argument of Periapsis(deg)": -0.012689493772896788,
        "Eccentricity": 0.0,
        "Inclination(deg)": 97.0,
        "Latitude(deg)": 1.2578257440204688,
        "Longitude(deg)": -41.45655647327412,
        "Mean Anomaly(deg)": 1.3945383265614366,
        "RAAN(deg)": 60.00333869676829,
        "Satellite Name": "Starlink Shell 3 1755",
        "Satellite Number": 1755,
        "Semi-Major Axis(m)": 6938478.169268562,
        "Time(s)": 320
    },
    {
        "Altitude(m)": 566215.3086076943,
        "Argument of Periapsis(deg)": -0.013086040453299813,
        "Eccentricity": 0.0,
        "Inclination(deg)": 97.0,
        "Latitude(deg)": 1.8822480031094766,
        "Longitude(deg)": -41.57454234594636,
        "Mean Anomaly(deg)": 2.0200145242665077,
        "RAAN(deg)": 60.00344303104229,
        "Satellite Name": "Starlink Shell 3 1755",
        "Satellite Number": 1755,
        "Semi-Major Axis(m)": 6938478.169268562,
        "Time(s)": 330
    },
    {
        "Altitude(m)": 566149.4194517649,
        "Argument of Periapsis(deg)": -0.01348258713370284,
        "Eccentricity": 0.0,
        "Inclination(deg)": 97.0,
        "Latitude(deg)": 2.506675882939325,
        "Longitude(deg)": -41.69258398721496,
        "Mean Anomaly(deg)": 2.645490721971516,
        "RAAN(deg)": 60.0035473653163,
        "Satellite Name": "Starlink Shell 3 1755",
        "Satellite Number": 1755,
        "Semi-Major Axis(m)": 6938478.169268562,
        "Time(s)": 340
    },
    {
        "Altitude(m)": 566087.8494413662,
        "Argument of Periapsis(deg)": -0.013879133814105863,
        "Eccentricity": 0.0,
        "Inclination(deg)": 97.0,
        "Latitude(deg)": 3.1311063782545623,
        "Longitude(deg)": -41.81069955875252,
        "Mean Anomaly(deg)": 3.270966919676523,
        "RAAN(deg)": 60.00365169959031,
        "Satellite Name": "Starlink Shell 3 1755",
        "Satellite Number": 1755,
        "Semi-Major Axis(m)": 6938478.169268562,
        "Time(s)": 350
    },
    {
        "Altitude(m)": 566030.5991341928,
        "Argument of Periapsis(deg)": -0.01427568049450889,
        "Eccentricity": 0.0,
        "Inclination(deg)": 97.0,
        "Latitude(deg)": 3.7555364812355654,
        "Longitude(deg)": -41.928906787471945,
        "Mean Anomaly(deg)": 3.896443117381569,
        "RAAN(deg)": 60.00375603386432,
        "Satellite Name": "Starlink Shell 3 1755",
        "Satellite Number": 1755,
        "Semi-Major Axis(m)": 6938478.169268562,
        "Time(s)": 360
    },
    {
        "Altitude(m)": 565977.667013281,
        "Argument of Periapsis(deg)": -0.014672227174911913,
        "Eccentricity": 0.0,
        "Inclination(deg)": 97.0,
        "Latitude(deg)": 4.379963181403706,
        "Longitude(deg)": -42.04722399111921,
        "Mean Anomaly(deg)": 4.5219193150866275,
        "RAAN(deg)": 60.00386036813833,
        "Satellite Name": "Starlink Shell 3 1755",
        "Satellite Number": 1755,
        "Semi-Major Axis(m)": 6938478.169268562,
        "Time(s)": 370
    }
]